0 SL-8 R/B
1 10492U 77109B   13281.67892532  .00000388  00000-0  93634-3 0  1222
2 10492 082.9208 115.0170 0020414 176.6547 250.8350 13.19594809727603
0 SL-8 R/B
1 10492U 77109B   13283.72252914  .00000305  00000-0  73063-3 0  1238
2 10492 082.9204 113.6375 0020533 171.5553 238.9891 13.19596370727874
0 SL-8 R/B
1 10492U 77109B   13286.09143953 -.00000208  00000-0 -55235-3 0  1249
2 10492 082.9203 112.0381 0020651 165.7294 332.4133 13.19599673728184
0 SL-8 R/B
1 10492U 77109B   13288.13862522 -.00000107  00000-0 -30138-3 0  1250
2 10492 082.9206 110.6557 0020823 160.9652 337.2606 13.19596567728459
0 SL-8 R/B
1 10492U 77109B   13290.47691212 -.00000093  00000-0 -26409-3 0  1267
2 10492 082.9208 109.0772 0020934 155.2365 285.2105 13.19595247728767
0 SL-8 R/B
1 10492U 77109B   13292.52341959 -.00000072  00000-0 -21241-3 0  1272
2 10492 082.9209 107.6956 0020880 150.4661 286.8129 13.19595008729031
0 SL-8 R/B
1 10492U 77109B   13294.71952477 -.00000089  00000-0 -25571-3 0  1287
2 10492 082.9212 106.2130 0021110 145.0044 279.3998 13.19594877729322
